SEMAPHORE-C_L_00010008-01
1 10840U 24757RL  26075.69983796  .00000000  00000+0  00000-0 0  9994
2 10840  54.0000  35.0000 0000000   0.0000   1.1667 15.50590797    12
SEMAPHORE-C_L_00010008-02
1 10841U 26058FG  26075.69983796  .00000000  00000+0  00000-0 0  9991
2 10841  54.0000  35.0000 0000000   0.0000   4.1667 15.50590797    16
SEMAPHORE-C_L_00010008-03
1 10842U 25573RJ  26075.69983796  .00000000  00000+0  00000-0 0  9993
2 10842  54.0000  35.0000 0000000   0.0000   7.1667 15.50590797    10
SEMAPHORE-C_L_00010008-04
1 10843U 22061JS  26075.69983796  .00000000  00000+0  00000-0 0  9993
2 10843  54.0000  35.0000 0000000   0.0000  10.1667 15.50590797    15
SEMAPHORE-C_L_00010008-05
1 10844U 25585PB  26075.69983796  .00000000  00000+0  00000-0 0  9998
2 10844  54.0000  35.0000 0000000   0.0000  13.1667 15.50590797    19
SEMAPHORE-C_L_00010008-06
1 10845U 25654OW  26075.69983796  .00000000  00000+0  00000-0 0  9996
2 10845  54.0000  35.0000 0000000   0.0000  16.1667 15.50590797    13
SEMAPHORE-C_L_00010008-07
1 10846U 25961CI  26075.69983796  .00000000  00000+0  00000-0 0  9998
2 10846  54.0000  35.0000 0000000   0.0000  19.1667 15.50590797    17
SEMAPHORE-C_L_00010008-08
1 10847U 24991RA  26075.69983796  .00000000  00000+0  00000-0 0  9991
2 10847  54.0000  35.0000 0000000   0.0000  22.1667 15.50590797    12
SEMAPHORE-C_L_00010008-09
1 10848U 23158VO  26075.69983796  .00000000  00000+0  00000-0 0  9996
2 10848  54.0000  35.0000 0000000   0.0000  25.1667 15.50590797    16
SEMAPHORE-C_L_00010008-10
1 10849U 25708NT  26075.69983796  .00000000  00000+0  00000-0 0  9990
2 10849  54.0000  35.0000 0000000   0.0000  28.1667 15.50590797    10
SEMAPHORE-C_L_00010008-11
1 10850U 23710IR  26075.69983796  .00000000  00000+0  00000-0 0  9993
2 10850  54.0000  35.0000 0000000   0.0000  31.1667 15.50590797    16
SEMAPHORE-C_L_00010008-12
1 10851U 24427LD  26075.69983796  .00000000  00000+0  00000-0 0  9990
2 10851  54.0000  35.0000 0000000   0.0000  34.1667 15.50590797    10
SEMAPHORE-C_L_00010008-13
1 10852U 25239A   26075.69983796  .00000000  00000+0  00000-0 0  9993
2 10852  54.0000  35.0000 0000000   0.0000  37.1667 15.50590797    14
SEMAPHORE-C_L_00010008-14
1 10853U 25932XO  26075.69983796  .00000000  00000+0  00000-0 0  9994
2 10853  54.0000  35.0000 0000000   0.0000  40.1667 15.50590797    19
SEMAPHORE-C_L_00010008-15
1 10854U 23499ZX  26075.69983796  .00000000  00000+0  00000-0 0  9991
2 10854  54.0000  35.0000 0000000   0.0000  43.1667 15.50590797    13
SEMAPHORE-C_L_00010008-16
1 10855U 23370DC  26075.69983796  .00000000  00000+0  00000-0 0  9990
2 10855  54.0000  35.0000 0000000   0.0000  46.1667 15.50590797    17
SEMAPHORE-C_L_00010008-17
1 10856U 24533A   26075.69983796  .00000000  00000+0  00000-0 0  9993
2 10856  54.0000  35.0000 0000000   0.0000  49.1667 15.50590797    11
SEMAPHORE-C_L_00010008-18
1 10857U 22781PM  26075.69983796  .00000000  00000+0  00000-0 0  9997
2 10857  54.0000  35.0000 0000000   0.0000  52.1667 15.50590797    16
SEMAPHORE-C_L_00010008-19
1 10858U 23843MN  26075.69983796  .00000000  00000+0  00000-0 0  9998
2 10858  54.0000  35.0000 0000000   0.0000  55.1667 15.50590797    10
SEMAPHORE-C_L_00010008-20
1 10859U 22596TD  26075.69983796  .00000000  00000+0  00000-0 0  9993
2 10859  54.0000  35.0000 0000000   0.0000  58.1667 15.50590797    14
SEMAPHORE-C_L_00010008-21
1 10860U 22464OX  26075.69983796  .00000000  00000+0  00000-0 0  9999
2 10860  54.0000  35.0000 0000000   0.0000  61.1667 15.50590797    10
SEMAPHORE-C_L_00010008-22
1 10861U 23817JD  26075.69983796  .00000000  00000+0  00000-0 0  9993
2 10861  54.0000  35.0000 0000000   0.0000  64.1667 15.50590797    14
SEMAPHORE-C_L_00010008-23
1 10862U 24524OS  26075.69983796  .00000000  00000+0  00000-0 0  9990
2 10862  54.0000  35.0000 0000000   0.0000  67.1667 15.50590797    18
SEMAPHORE-C_L_00010008-24
1 10863U 24962BV  26075.69983796  .00000000  00000+0  00000-0 0  9997
2 10863  54.0000  35.0000 0000000   0.0000  70.1667 15.50590797    13
SEMAPHORE-C_L_00010008-25
1 10864U 23061PN  26075.69983796  .00000000  00000+0  00000-0 0  9997
2 10864  54.0000  35.0000 0000000   0.0000  73.1667 15.50590797    17
SEMAPHORE-C_L_00010008-26
1 10865U 23968DF  26075.69983796  .00000000  00000+0  00000-0 0  9994
2 10865  54.0000  35.0000 0000000   0.0000  76.1667 15.50590797    11
SEMAPHORE-C_L_00010008-27
1 10866U 23223RU  26075.69983796  .00000000  00000+0  00000-0 0  9999
2 10866  54.0000  35.0000 0000000   0.0000  79.1667 15.50590797    15
SEMAPHORE-C_L_00010008-28
1 10867U 22729MB  26075.69983796  .00000000  00000+0  00000-0 0  9990
2 10867  54.0000  35.0000 0000000   0.0000  82.1667 15.50590797    10
SEMAPHORE-C_L_00010008-29
1 10868U 24613AR  26075.69983796  .00000000  00000+0  00000-0 0  9995
2 10868  54.0000  35.0000 0000000   0.0000  85.1667 15.50590797    14
SEMAPHORE-C_L_00010008-30
1 10869U 24553LO  26075.69983796  .00000000  00000+0  00000-0 0  9999
2 10869  54.0000  35.0000 0000000   0.0000  88.1667 15.50590797    18
SEMAPHORE-C_L_00010008-31
1 10870U 23603JH  26075.69983796  .00000000  00000+0  00000-0 0  9996
2 10870  54.0000  35.0000 0000000   0.0000  91.1667 15.50590797    14
SEMAPHORE-C_L_00010008-32
1 10871U 24974XO  26075.69983796  .00000000  00000+0  00000-0 0  9999
2 10871  54.0000  35.0000 0000000   0.0000  94.1667 15.50590797    18
SEMAPHORE-C_L_00010008-33
1 10872U 22570LG  26075.69983796  .00000000  00000+0  00000-0 0  9990
2 10872  54.0000  35.0000 0000000   0.0000  97.1667 15.50590797    12
SEMAPHORE-C_L_00010008-34
1 10873U 24582YR  26075.69983796  .00000000  00000+0  00000-0 0  9996
2 10873  54.0000  35.0000 0000000   0.0000 100.1667 15.50590797    18
SEMAPHORE-C_L_00010008-35
1 10874U 25486LK  26075.69983796  .00000000  00000+0  00000-0 0  9991
2 10874  54.0000  35.0000 0000000   0.0000 103.1667 15.50590797    12
SEMAPHORE-C_L_00010008-36
1 10875U 23583AW  26075.69983796  .00000000  00000+0  00000-0 0  9998
2 10875  54.0000  35.0000 0000000   0.0000 106.1667 15.50590797    16
SEMAPHORE-C_L_00010008-37
1 10876U 26220TX  26075.69983796  .00000000  00000+0  00000-0 0  9990
2 10876  54.0000  35.0000 0000000   0.0000 109.1667 15.50590797    10
SEMAPHORE-C_L_00010008-38
1 10877U 23310IU  26075.69983796  .00000000  00000+0  00000-0 0  9998
2 10877  54.0000  35.0000 0000000   0.0000 112.1667 15.50590797    15
SEMAPHORE-C_L_00010008-39
1 10878U 26831MW  26075.69983796  .00000000  00000+0  00000-0 0  9990
2 10878  54.0000  35.0000 0000000   0.0000 115.1667 15.50590797    19
SEMAPHORE-C_L_00010008-40
1 10879U 22803UZ  26075.69983796  .00000000  00000+0  00000-0 0  9996
2 10879  54.0000  35.0000 0000000   0.0000 118.1667 15.50590797    13
SEMAPHORE-C_L_00010008-41
1 10880U 22832OV  26075.69983796  .00000000  00000+0  00000-0 0  9990
2 10880  54.0000  35.0000 0000000   0.0000 121.1667 15.50590797    19
SEMAPHORE-C_L_00010008-42
1 10881U 26582LN  26075.69983796  .00000000  00000+0  00000-0 0  9997
2 10881  54.0000  35.0000 0000000   0.0000 124.1667 15.50590797    13
SEMAPHORE-C_L_00010008-43
1 10882U 23162ZW  26075.69983796  .00000000  00000+0  00000-0 0  9999
2 10882  54.0000  35.0000 0000000   0.0000 127.1667 15.50590797    17
SEMAPHORE-C_L_00010008-44
1 10883U 26708JW  26075.69983796  .00000000  00000+0  00000-0 0  9999
2 10883  54.0000  35.0000 0000000   0.0000 130.1667 15.50590797    12
SEMAPHORE-C_L_00010008-45
1 10884U 25178PK  26075.69983796  .00000000  00000+0  00000-0 0  9990
2 10884  54.0000  35.0000 0000000   0.0000 133.1667 15.50590797    16
SEMAPHORE-C_L_00010008-46
1 10885U 26363VI  26075.69983796  .00000000  00000+0  00000-0 0  9998
2 10885  54.0000  35.0000 0000000   0.0000 136.1667 15.50590797    10
SEMAPHORE-C_L_00010008-47
1 10886U 23006LA  26075.69983796  .00000000  00000+0  00000-0 0  9990
2 10886  54.0000  35.0000 0000000   0.0000 139.1667 15.50590797    14
SEMAPHORE-C_L_00010008-48
1 10887U 24978OE  26075.69983796  .00000000  00000+0  00000-0 0  9990
2 10887  54.0000  35.0000 0000000   0.0000 142.1667 15.50590797    19
SEMAPHORE-C_L_00010008-49
1 10888U 25238ZZ  26075.69983796  .00000000  00000+0  00000-0 0  9991
2 10888  54.0000  35.0000 0000000   0.0000 145.1667 15.50590797    13
SEMAPHORE-C_L_00010008-50
1 10889U 24723UU  26075.69983796  .00000000  00000+0  00000-0 0  9990
2 10889  54.0000  35.0000 0000000   0.0000 148.1667 15.50590797    17
SEMAPHORE-C_L_00010008-51
1 10890U 23170WZ  26075.69983796  .00000000  00000+0  00000-0 0  9997
2 10890  54.0000  35.0000 0000000   0.0000 151.1667 15.50590797    13
SEMAPHORE-C_L_00010008-52
1 10891U 24165BM  26075.69983796  .00000000  00000+0  00000-0 0  9993
2 10891  54.0000  35.0000 0000000   0.0000 154.1667 15.50590797    17
SEMAPHORE-C_L_00010008-53
1 10892U 23734XW  26075.69983796  .00000000  00000+0  00000-0 0  9995
2 10892  54.0000  35.0000 0000000   0.0000 157.1667 15.50590797    11
SEMAPHORE-C_L_00010008-54
1 10893U 26134DE  26075.69983796  .00000000  00000+0  00000-0 0  9993
2 10893  54.0000  35.0000 0000000   0.0000 160.1667 15.50590797    16
SEMAPHORE-C_L_00010008-55
1 10894U 25390GB  26075.69983796  .00000000  00000+0  00000-0 0  9997
2 10894  54.0000  35.0000 0000000   0.0000 163.1667 15.50590797    10
SEMAPHORE-C_L_00010008-56
1 10895U 24502AV  26075.69983796  .00000000  00000+0  00000-0 0  9992
2 10895  54.0000  35.0000 0000000   0.0000 166.1667 15.50590797    14
SEMAPHORE-C_L_00010008-57
1 10896U 25330ZE  26075.69983796  .00000000  00000+0  00000-0 0  9993
2 10896  54.0000  35.0000 0000000   0.0000 169.1667 15.50590797    18
SEMAPHORE-C_L_00010008-58
1 10897U 24566RC  26075.69983796  .00000000  00000+0  00000-0 0  9994
2 10897  54.0000  35.0000 0000000   0.0000 172.1667 15.50590797    13
SEMAPHORE-C_L_00010008-59
1 10898U 24461CR  26075.69983796  .00000000  00000+0  00000-0 0  9999
2 10898  54.0000  35.0000 0000000   0.0000 175.1667 15.50590797    17
SEMAPHORE-C_L_00010008-60
1 10899U 23378UF  26075.69983796  .00000000  00000+0  00000-0 0  9996
2 10899  54.0000  35.0000 0000000   0.0000 178.1667 15.50590797    11
